[{"OBJECT_NAME":"STARLINK-5684","OBJECT_ID":"2023-015E","EPOCH":"2026-03-09T02:39:23.596128","MEAN_MOTION":15.03263735,"ECCENTRICITY":0.00017491,"INCLINATION":43.0044,"RA_OF_ASC_NODE":329.4179,"ARG_OF_PERICENTER":264.1841,"MEAN_ANOMALY":95.8802,"EPHEMERIS_TYPE":0,"CLASSIFICATION_TYPE":"U","NORAD_CAT_ID":55453,"ELEMENT_SET_NO":999,"REV_AT_EPOCH":17066,"BSTAR":0.0059788815,"MEAN_MOTION_DOT":0.00083119,"MEAN_MOTION_DDOT":0},{"OBJECT_NAME":"FENGYUN 1C DEB","OBJECT_ID":"1999-025EZQ","EPOCH":"2026-03-02T09:43:26.129856","MEAN_MOTION":14.27138362,"ECCENTRICITY":0.0348107,"INCLINATION":98.2222,"RA_OF_ASC_NODE":265.8497,"ARG_OF_PERICENTER":185.4453,"MEAN_ANOMALY":297.6866,"EPHEMERIS_TYPE":0,"CLASSIFICATION_TYPE":"U","NORAD_CAT_ID":46990,"ELEMENT_SET_NO":999,"REV_AT_EPOCH":9664,"BSTAR":0.0052877,"MEAN_MOTION_DOT":0.0002469,"MEAN_MOTION_DDOT":0}]
